[{"OBJECT_NAME":"STARLINK-3955","OBJECT_ID":"2022-051AE","EPOCH":"2026-03-09T11:57:09.429120","MEAN_MOTION":15.08841748,"ECCENTRICITY":0.00013273,"INCLINATION":53.2161,"RA_OF_ASC_NODE":134.9831,"ARG_OF_PERICENTER":93.7132,"MEAN_ANOMALY":266.4012,"EPHEMERIS_TYPE":0,"CLASSIFICATION_TYPE":"U","NORAD_CAT_ID":52561,"ELEMENT_SET_NO":999,"REV_AT_EPOCH":21134,"BSTAR":1.399644e-5,"MEAN_MOTION_DOT":-6.5e-7,"MEAN_MOTION_DDOT":0},{"OBJECT_NAME":"DELTA 2 R\/B","OBJECT_ID":"1990-074B","EPOCH":"2026-03-09T13:41:18.722976","MEAN_MOTION":14.63139944,"ECCENTRICITY":0.0331131,"INCLINATION":24.7574,"RA_OF_ASC_NODE":207.7051,"ARG_OF_PERICENTER":168.7615,"MEAN_ANOMALY":192.0502,"EPHEMERIS_TYPE":0,"CLASSIFICATION_TYPE":"U","NORAD_CAT_ID":20763,"ELEMENT_SET_NO":999,"REV_AT_EPOCH":86338,"BSTAR":0.00071917,"MEAN_MOTION_DOT":8.858e-5,"MEAN_MOTION_DDOT":0}]
